TJS-7                   
1 49115U 21077A   26185.20255131 -.00000112  00000+0  00000+0 0  9991
2 49115   0.3138 264.4009 0003443 116.3829 234.8917  1.00271219  9710
CHINASAT 9B             
1 49125U 21080A   26185.12266756  .00000000  00000+0  00000+0 0  9997
2 49125   0.0203  52.7487 0002189  83.9076 291.0463  1.00271016 17814
SHIJIAN-21 (SJ-21)      
1 49330U 21094A   26185.33065936 -.00000339  00000+0  00000+0 0  9996
2 49330   5.1509  61.0777 0049918 168.0782 299.9702  1.00262647  5531
SES-17                  
1 49332U 21095A   26183.56933301 -.00000261  00000+0  00000+0 0  9996
2 49332   0.0234  42.6033 0001168  57.4223 318.4393  1.00269644 18001
SYRACUSE 4A             
1 49333U 21095B   26183.80545439  .00000000  00000+0  00000+0 0  9995
2 49333   0.0227  39.1044 0001628  51.3555 165.8562  1.00276092 18107
QZS-1R (MICHIBIKI-1R)   
1 49336U 21096A   26183.60705222 -.00000270  00000+0  00000+0 0  9995
2 49336  37.4911  79.3558 0755908 272.0505 280.6356  1.00250822 17169
ZHONGXING-1D            
1 49505U 21114A   26182.30461367 -.00000326  00000+0  00000+0 0  9991
2 49505   0.0467 124.1238 0000571  39.3045 355.7759  1.00270455 16967
STPSAT-6                
1 49817U 21118A   26184.98626122 -.00000034  00000+0  00000+0 0  9995
2 49817   0.3615  85.2570 0000914 262.8093 177.2700  1.00270695 16749
EXPRESS AMU-7           
1 50001U 21123A   26185.25092196 -.00000231  00000+0  00000+0 0  9996
2 50001   0.0166 298.0552 0000234 114.0214 105.5207  1.00271614 16711
EXPRESS AMU-3           
1 50002U 21123B   26184.93101613  .00000000  00000+0  00000+0 0  9999
2 50002   0.0190 343.4413 0000179  25.5448 351.0143  1.00271020  7193
TIANLIAN 2-02           
1 50005U 21124A   26185.18479675 -.00000002  00000+0  00000+0 0  9990
2 50005   0.8433  85.8725 0000862 171.6626 262.1788  1.00272579 16790
TURKSAT 5B              
1 50212U 21126A   26183.83070178  .00000157  00000+0  00000+0 0  9997
2 50212   0.0684 341.1735 0002571  18.6417 262.0942  1.00271758 16458
INMARSAT 6-F1           
1 50319U 21128A   26183.79488584 -.00000161  00000+0  00000+0 0  9992
2 50319   0.0164 328.9690 0000355 176.6559 145.1152  1.00270399 16412
SHIYAN-12 01 (SY-12 01) 
1 50321U 21129A   26183.72950594  .00000150  00000+0  00000+0 0  9991
2 50321   3.7121  79.7076 0002916 293.3389 217.6296  1.00046111 16653
SHIYAN-12 02 (SY-12 02) 
1 50322U 21129B   26183.76386029 -.00000326  00000+0  00000+0 0  9998
2 50322   3.7116  79.7099 0003122  60.1473 156.9356  1.00484340 16659
TJS-9                   
1 50574U 21135A   26185.24936196 -.00000287  00000+0  00000+0 0  9991
2 50574   0.0242 109.6845 0003663 315.1531  84.3981  1.00268787 16606
USA 324                 
1 51280U 22006A   26157.08795008 -.00000058  00000+0  00000+0 0  9996
2 51280   0.7690  83.2777 0002840 165.6787 110.1567  1.00289779 16021
GOES 18                 
1 51850U 22021A   26184.76737028  .00000108  00000+0  00000+0 0  9994
2 51850   0.0069  78.9133 0000553  70.1938 271.9273  1.00271795  6759
ZHONGXING-6D            
1 52255U 22038A   26184.86956258 -.00000342  00000+0  00000+0 0  9992
2 52255   0.0302  87.3400 0000492  99.8180 172.8385  1.00270847 15580
NILESAT 301             
1 52817U 22061A   26185.22087067 -.00000045  00000+0  00000+0 0  9996
2 52817   0.0463  13.4730 0004467  51.2003 290.1042  1.00272986 14905
CMS-02 (GSAT-24)        
1 52903U 22067A   26185.09697672 -.00000152  00000+0  00000+0 0  9991
2 52903   0.0060 311.7526 0001223  68.5600  19.7049  1.00270156 14776
MEASAT 3D               
1 52904U 22067B   26185.16864382 -.00000229  00000+0  00000+0 0  9999
2 52904   0.0315 332.7247 0000476 106.2805 355.4015  1.00270345 14828
SES-22                  
1 52933U 22071A   26185.19466461  .00000116  00000+0  00000+0 0  9999
2 52933   0.0185  21.2489 0001162  79.3332 112.7020  1.00273002  7691
WFOV (USA 332)          
1 52940U 22073A   26185.11711579 -.00000352  00000+0  00000+0 0  9997
2 52940   3.7516  78.3206 0001291 232.5400 132.7425  1.00274087 14546
TIANLIAN 2-03           
1 53100U 22078A   26185.22433736  .00000084  00000+0  00000+0 0  9990
2 53100   0.7138  77.3268 0001025 347.3573 308.8822  1.00273420 14716
SBIRS GEO-6 (USA 336)   
1 53355U 22092A   26185.24970862 -.00000279  00000+0  00000+0 0  9993
2 53355   3.2300 317.7480 0002060 142.4576  50.9644  1.00271490 14409
EUTELSAT KONNECT VHTS   
1 53765U 22110A   26183.87520402  .00000028  00000+0  00000+0 0  9998
2 53765   0.0592  98.8696 0003068 341.5606 158.2763  1.00269803  6997
ZHONGXING-1E            
1 53813U 22112A   26185.16708381 -.00000137  00000+0  00000+0 0  9994
2 53813   0.0380 137.9358 0000313  94.9604 190.8474  1.00270792 14015
SES-20                  
1 53960U 22123A   26183.85722998 -.00000090  00000+0  00000+0 0  9991
2 53960   0.0202  63.8433 0002125  32.9601  29.5718  1.00270139 13691
SES-21                  
1 53961U 22123B   26184.98244787  .00000000  00000+0  00000+0 0  9992
2 53961   0.0398  27.6364 0000881  72.3014  44.8135  1.00268272  7389
GALAXY 33 (G-33)        
1 54026U 22128A   26185.19587795  .00000091  00000+0  00000+0 0  9993
2 54026   0.0158  52.4339 0002005  46.4037 120.8896  1.00271262 13919
GALAXY 34 (G-34)        
1 54027U 22128B   26183.85030604  .00000070  00000+0  00000+0 0  9994
2 54027   0.0130  31.8533 0001955  68.7137 357.4298  1.00268570 14078
