OBJECT_NAME,OBJECT_ID,EPOCH,MEAN_MOTION,ECCENTRICITY,INCLINATION,RA_OF_ASC_NODE,ARG_OF_PERICENTER,MEAN_ANOMALY,EPHEMERIS_TYPE,CLASSIFICATION_TYPE,NORAD_CAT_ID,ELEMENT_SET_NO,REV_AT_EPOCH,BSTAR,MEAN_MOTION_DOT,MEAN_MOTION_DDOT
TJS-7,2021-077A,2026-07-04T04:51:40.433184,1.00271219,.00034436,0.3138,264.4009,116.3829,234.8917,0,U,49115,999,971,0,-.112E-5,0
CHINASAT 9B,2021-080A,2026-07-04T02:56:38.477184,1.00271016,.00021894,0.0203,52.7487,83.9076,291.0463,0,U,49125,999,1781,0,0,0
SHIJIAN-21 (SJ-21),2021-094A,2026-07-04T07:56:08.968704,1.00262647,.0049918,5.1509,61.0777,168.0782,299.9702,0,U,49330,999,553,0,-.339E-5,0
SES-17,2021-095A,2026-07-02T13:39:50.372064,1.00269644,.0001168,0.0234,42.6033,57.4223,318.4393,0,U,49332,999,1800,0,-.261E-5,0
SYRACUSE 4A,2021-095B,2026-07-02T19:19:51.259296,1.00276092,.00016284,0.0227,39.1044,51.3555,165.8562,0,U,49333,999,1810,0,0,0
QZS-1R (MICHIBIKI-1R),2021-096A,2026-07-02T14:34:09.311808,1.00250822,.07559081,37.4911,79.3558,272.0505,280.6356,0,U,49336,999,1716,0,-.27E-5,0
ZHONGXING-1D,2021-114A,2026-07-01T07:18:38.621088,1.00270455,.00005715,0.0467,124.1238,39.3045,355.7759,0,U,49505,999,1696,0,-.326E-5,0
STPSAT-6,2021-118A,2026-07-03T23:40:12.969408,1.00270695,.0000914,0.3615,85.2570,262.8093,177.2700,0,U,49817,999,1674,0,-.34E-6,0
EXPRESS AMU-7,2021-123A,2026-07-04T06:01:19.657344,1.00271614,.00002348,0.0166,298.0552,114.0214,105.5207,0,U,50001,999,1671,0,-.231E-5,0
EXPRESS AMU-3,2021-123B,2026-07-03T22:20:39.793632,1.00271020,.00001797,0.0190,343.4413,25.5448,351.0143,0,U,50002,999,719,0,0,0
TIANLIAN 2-02,2021-124A,2026-07-04T04:26:06.439200,1.00272579,.00008621,0.8433,85.8725,171.6626,262.1788,0,U,50005,999,1679,0,-.2E-7,0
TURKSAT 5B,2021-126A,2026-07-02T19:56:12.633792,1.00271758,.00025711,0.0684,341.1735,18.6417,262.0942,0,U,50212,999,1645,0,.157E-5,0
INMARSAT 6-F1,2021-128A,2026-07-02T19:04:38.136576,1.00270399,.0000355,0.0164,328.9690,176.6559,145.1152,0,U,50319,999,1641,0,-.161E-5,0
SHIYAN-12 01 (SY-12 01),2021-129A,2026-07-02T17:30:29.313216,1.00046111,.0002916,3.7121,79.7076,293.3389,217.6296,0,U,50321,999,1665,0,.15E-5,0
SHIYAN-12 02 (SY-12 02),2021-129B,2026-07-02T18:19:57.529056,1.00484340,.0003122,3.7116,79.7099,60.1473,156.9356,0,U,50322,999,1665,0,-.326E-5,0
TJS-9,2021-135A,2026-07-04T05:59:04.873344,1.00268787,.00036636,0.0242,109.6845,315.1531,84.3981,0,U,50574,999,1660,0,-.287E-5,0
USA 324,2022-006A,2026-06-06T02:06:38.886912,1.00289779,.000284,0.7690,83.2777,165.6787,110.1567,0,U,51280,999,1602,0,-.58E-6,0
GOES 18,2022-021A,2026-07-03T18:25:00.792192,1.00271795,.00005536,0.0069,78.9133,70.1938,271.9273,0,U,51850,999,675,0,.108E-5,0
ZHONGXING-6D,2022-038A,2026-07-03T20:52:10.206912,1.00270847,.00004929,0.0302,87.3400,99.8180,172.8385,0,U,52255,999,1558,0,-.342E-5,0
NILESAT 301,2022-061A,2026-07-04T05:18:03.225888,1.00272986,.00044674,0.0463,13.4730,51.2003,290.1042,0,U,52817,999,1490,0,-.45E-6,0
CMS-02 (GSAT-24),2022-067A,2026-07-04T02:19:38.788608,1.00270156,.00012236,0.0060,311.7526,68.5600,19.7049,0,U,52903,999,1477,0,-.152E-5,0
MEASAT 3D,2022-067B,2026-07-04T04:02:50.826048,1.00270345,.00004761,0.0315,332.7247,106.2805,355.4015,0,U,52904,999,1482,0,-.229E-5,0
SES-22,2022-071A,2026-07-04T04:40:19.022304,1.00273002,.00011625,0.0185,21.2489,79.3332,112.7020,0,U,52933,999,769,0,.116E-5,0
WFOV (USA 332),2022-073A,2026-07-04T02:48:38.804256,1.00274087,.00012916,3.7516,78.3206,232.5400,132.7425,0,U,52940,999,1454,0,-.352E-5,0
TIANLIAN 2-03,2022-078A,2026-07-04T05:23:02.747904,1.00273420,.00010255,0.7138,77.3268,347.3573,308.8822,0,U,53100,999,1471,0,.84E-6,0
SBIRS GEO-6 (USA 336),2022-092A,2026-07-04T05:59:34.824768,1.00271490,.00020602,3.2300,317.7480,142.4576,50.9644,0,U,53355,999,1440,0,-.279E-5,0
EUTELSAT KONNECT VHTS,2022-110A,2026-07-02T21:00:17.627328,1.00269803,.00030684,0.0592,98.8696,341.5606,158.2763,0,U,53765,999,699,0,.28E-6,0
ZHONGXING-1E,2022-112A,2026-07-04T04:00:36.041184,1.00270792,.00003132,0.0380,137.9358,94.9604,190.8474,0,U,53813,999,1401,0,-.137E-5,0
SES-20,2022-123A,2026-07-02T20:34:24.670272,1.00270139,.00021259,0.0202,63.8433,32.9601,29.5718,0,U,53960,999,1369,0,-.9E-6,0
SES-21,2022-123B,2026-07-03T23:34:43.495968,1.00268272,.00008818,0.0398,27.6364,72.3014,44.8135,0,U,53961,999,738,0,0,0
GALAXY 33 (G-33),2022-128A,2026-07-04T04:42:03.854880,1.00271262,.0002005,0.0158,52.4339,46.4037,120.8896,0,U,54026,999,1391,0,.91E-6,0
GALAXY 34 (G-34),2022-128B,2026-07-02T20:24:26.441856,1.00268570,.00019557,0.0130,31.8533,68.7137,357.4298,0,U,54027,999,1407,0,.7E-6,0
